{"type": "FeatureCollection", "features": [ {"type": "Feature", "properties": {"norad_id": 29878, "name": "FENGYUN 1C DEB", "group": "fengyun-1c-debris", "lat": 58.94875908708468, "lon": -13.712714259165002, "alt_km": 530.1537632196469, "timestamp": "2025-12-07T14:37:05.476641+00:00", "meta": {"OBJECT_NAME": "FENGYUN 1C DEB", "OBJECT_ID": "1999-025FY", "EPOCH": "2025-12-06T11:00:36.591840", "MEAN_MOTION": 15.07690667, "ECCENTRICITY": 0.00309085, "INCLINATION": 96.9478, "RA_OF_ASC_NODE": 153.5617, "ARG_OF_PERICENTER": 197.7899, "MEAN_ANOMALY": 162.2251, "EPHEMERIS_TYPE": 0, "CLASSIFICATION_TYPE": "U", "NORAD_CAT_ID": 29878, "ELEMENT_SET_NO": 999, "REV_AT_EPOCH": 98553, "BSTAR": 0.012767679, "MEAN_MOTION_DOT": 0.00202116, "MEAN_MOTION_DDOT": 0}, "tle": {"line1": "1 29878U 99025FY  25340.45875685  .00202116  00000+0  12768-1 0  9997", "line2": "2 29878  96.9478 153.5617 0030908 197.7899 162.2251 15.07690667985533"}}, "geometry": {"type": "Point", "coordinates": [-13.712714259165002, 58.94875908708468]}}, {"type": "Feature", "properties": {"norad_id": 29880, "name": "FENGYUN 1C DEB", "group": "fengyun-1c-debris", "lat": -45.28075096614299, "lon": -90.90758345601901, "alt_km": 1081.5115164090003, "timestamp": "2025-12-07T14:37:05.476650+00:00", "meta": {"OBJECT_NAME": "FENGYUN 1C DEB", "OBJECT_ID": "1999-025GA", "EPOCH": "2025-12-06T18:26:31.953696", "MEAN_MOTION": 13.93881069, "ECCENTRICITY": 0.02313238, "INCLINATION": 98.1943, "RA_OF_ASC_NODE": 259.9792, "ARG_OF_PERICENTER": 118.2178, "MEAN_ANOMALY": 300.747, "EPHEMERIS_TYPE": 0, "CLASSIFICATION_TYPE": "U", "NORAD_CAT_ID": 29880, "ELEMENT_SET_NO": 999, "REV_AT_EPOCH": 95479, "BSTAR": 0.0014300162, "MEAN_MOTION_DOT": 2.321e-05, "MEAN_MOTION_DDOT": 0}, "tle": {"line1": "1 29880U 99025GA  25340.76842539  .00002321  00000+0  14300-2 0  9997", "line2": "2 29880  98.1943 259.9792 0231323 118.2178 300.7470 13.93881069954791"}}, "geometry": {"type": "Point", "coordinates": [-90.90758345601901, -45.28075096614299]}}, {"type": "Feature", "properties": {"norad_id": 29881, "name": "FENGYUN 1C DEB", "group": "fengyun-1c-debris", "lat": -41.04470208584218, "lon": -37.97628254878732, "alt_km": 1168.7352020228427, "timestamp": "2025-12-07T14:37:05.476661+00:00", "meta": {"OBJECT_NAME": "FENGYUN 1C DEB", "OBJECT_ID": "1999-025GB", "EPOCH": "2025-12-06T21:25:33.364992", "MEAN_MOTION": 13.59579671, "ECCENTRICITY": 0.02920102, "INCLINATION": 98.7216, "RA_OF_ASC_NODE": 313.7045, "ARG_OF_PERICENTER": 86.9512, "MEAN_ANOMALY": 329.9537, "EPHEMERIS_TYPE": 0, "CLASSIFICATION_TYPE": "U", "NORAD_CAT_ID": 29881, "ELEMENT_SET_NO": 999, "REV_AT_EPOCH": 93155, "BSTAR": 0.0031743692, "MEAN_MOTION_DOT": 3.081e-05, "MEAN_MOTION_DDOT": 0}, "tle": {"line1": "1 29881U 99025GB  25340.89274728  .00003081  00000+0  31744-2 0  9996", "line2": "2 29881  98.7216 313.7045 0292010  86.9512 329.9537 13.59579671931555"}}, "geometry": {"type": "Point", "coordinates": [-37.97628254878732, -41.04470208584218]}}, {"type": "Feature", "properties": {"norad_id": 29884, "name": "FENGYUN 1C DEB", "group": "fengyun-1c-debris", "lat": -54.13730853329967, "lon": -179.12306008248166, "alt_km": 760.9150620591154, "timestamp": "2025-12-07T14:37:05.476671+00:00", "meta": {"OBJECT_NAME": "FENGYUN 1C DEB", "OBJECT_ID": "1999-025GE", "EPOCH": "2025-12-06T16:26:50.085024", "MEAN_MOTION": 14.40260843, "ECCENTRICITY": 0.00445222, "INCLINATION": 99.6029, "RA_OF_ASC_NODE": 13.3862, "ARG_OF_PERICENTER": 154.2271, "MEAN_ANOMALY": 333.3457, "EPHEMERIS_TYPE": 0, "CLASSIFICATION_TYPE": "U", "NORAD_CAT_ID": 29884, "ELEMENT_SET_NO": 999, "REV_AT_EPOCH": 98462, "BSTAR": 0.0011997237, "MEAN_MOTION_DOT": 3.792e-05, "MEAN_MOTION_DDOT": 0}, "tle": {"line1": "1 29884U 99025GE  25340.68530191  .00003792  00000+0  11997-2 0  9992", "line2": "2 29884  99.6029  13.3862 0044522 154.2271 333.3457 14.40260843984629"}}, "geometry": {"type": "Point", "coordinates": [-179.12306008248166, -54.13730853329967]}}, {"type": "Feature", "properties": {"norad_id": 29885, "name": "FENGYUN 1C DEB", "group": "fengyun-1c-debris", "lat": -47.02101369859017, "lon": 87.90383571906101, "alt_km": 796.8984128624643, "timestamp": "2025-12-07T14:37:05.476681+00:00", "meta": {"OBJECT_NAME": "FENGYUN 1C DEB", "OBJECT_ID": "1999-025GF", "EPOCH": "2025-12-06T19:07:31.539648", "MEAN_MOTION": 14.13576627, "ECCENTRICITY": 0.01180175, "INCLINATION": 98.3546, "RA_OF_ASC_NODE": 276.2183, "ARG_OF_PERICENTER": 181.3906, "MEAN_ANOMALY": 234.3634, "EPHEMERIS_TYPE": 0, "CLASSIFICATION_TYPE": "U", "NORAD_CAT_ID": 29885, "ELEMENT_SET_NO": 999, "REV_AT_EPOCH": 97373, "BSTAR": 0.00022806185, "MEAN_MOTION_DOT": 4.2e-06, "MEAN_MOTION_DDOT": 0}, "tle": {"line1": "1 29885U 99025GF  25340.79689282  .00000420  00000+0  22806-3 0  9998", "line2": "2 29885  98.3546 276.2183 0118017 181.3906 234.3634 14.13576627973730"}}, "geometry": {"type": "Point", "coordinates": [87.90383571906101, -47.02101369859017]}}, {"type": "Feature", "properties": {"norad_id": 29887, "name": "FENGYUN 1C DEB", "group": "fengyun-1c-debris", "lat": -12.81056546251314, "lon": 65.17366370656167, "alt_km": 599.596888461575, "timestamp": "2025-12-07T14:37:05.476691+00:00", "meta": {"OBJECT_NAME": "FENGYUN 1C DEB", "OBJECT_ID": "1999-025GH", "EPOCH": "2025-12-06T19:07:47.381088", "MEAN_MOTION": 14.33670155, "ECCENTRICITY": 0.02874345, "INCLINATION": 98.7187, "RA_OF_ASC_NODE": 62.3547, "ARG_OF_PERICENTER": 16.6874, "MEAN_ANOMALY": 103.347, "EPHEMERIS_TYPE": 0, "CLASSIFICATION_TYPE": "U", "NORAD_CAT_ID": 29887, "ELEMENT_SET_NO": 999, "REV_AT_EPOCH": 97889, "BSTAR": 0.00090224097, "MEAN_MOTION_DOT": 3.926e-05, "MEAN_MOTION_DDOT": 0}, "tle": {"line1": "1 29887U 99025GH  25340.79707617  .00003926  00000+0  90224-3 0  9996", "line2": "2 29887  98.7187  62.3547 0287434  16.6874 103.3470 14.33670155978897"}}, "geometry": {"type": "Point", "coordinates": [65.17366370656167, -12.81056546251314]}}, {"type": "Feature", "properties": {"norad_id": 29888, "name": "FENGYUN 1C DEB", "group": "fengyun-1c-debris", "lat": -39.90419274983577, "lon": -178.104201047416, "alt_km": 793.8063273288972, "timestamp": "2025-12-07T14:37:05.476701+00:00", "meta": {"OBJECT_NAME": "FENGYUN 1C DEB", "OBJECT_ID": "1999-025GJ", "EPOCH": "2025-12-06T11:44:37.559904", "MEAN_MOTION": 14.19838149, "ECCENTRICITY": 0.02752246, "INCLINATION": 99.192, "RA_OF_ASC_NODE": 172.9496, "ARG_OF_PERICENTER": 43.0944, "MEAN_ANOMALY": 319.1424, "EPHEMERIS_TYPE": 0, "CLASSIFICATION_TYPE": "U", "NORAD_CAT_ID": 29888, "ELEMENT_SET_NO": 999, "REV_AT_EPOCH": 97415, "BSTAR": 0.00063742279, "MEAN_MOTION_DOT": 1.924e-05, "MEAN_MOTION_DDOT": 0}, "tle": {"line1": "1 29888U 99025GJ  25340.48932361  .00001924  00000+0  63742-3 0  9990", "line2": "2 29888  99.1920 172.9496 0275224  43.0944 319.1424 14.19838149974159"}}, "geometry": {"type": "Point", "coordinates": [-178.104201047416, -39.90419274983577]}}, {"type": "Feature", "properties": {"norad_id": 29889, "name": "FENGYUN 1C DEB", "group": "fengyun-1c-debris", "lat": 15.901176562990791, "lon": -78.57541817170932, "alt_km": 885.5592193430921, "timestamp": "2025-12-07T14:37:05.476711+00:00", "meta": {"OBJECT_NAME": "FENGYUN 1C DEB", "OBJECT_ID": "1999-025GK", "EPOCH": "2025-12-06T14:23:59.159328", "MEAN_MOTION": 14.1350081, "ECCENTRICITY": 0.01546285, "INCLINATION": 99.4767, "RA_OF_ASC_NODE": 97.6285, "ARG_OF_PERICENTER": 56.1062, "MEAN_ANOMALY": 13.8825, "EPHEMERIS_TYPE": 0, "CLASSIFICATION_TYPE": "U", "NORAD_CAT_ID": 29889, "ELEMENT_SET_NO": 999, "REV_AT_EPOCH": 97232, "BSTAR": 0.00050227746, "MEAN_MOTION_DOT": 1.011e-05, "MEAN_MOTION_DDOT": 0}, "tle": {"line1": "1 29889U 99025GK  25340.59999027  .00001011  00000+0  50228-3 0  9997", "line2": "2 29889  99.4767  97.6285 0154628  56.1062  13.8825 14.13500810972326"}}, "geometry": {"type": "Point", "coordinates": [-78.57541817170932, 15.901176562990791]}}, {"type": "Feature", "properties": {"norad_id": 29890, "name": "FENGYUN 1C DEB", "group": "fengyun-1c-debris", "lat": -29.786649075493333, "lon": -82.73266355703295, "alt_km": 826.8108488361577, "timestamp": "2025-12-07T14:37:05.476721+00:00", "meta": {"OBJECT_NAME": "FENGYUN 1C DEB", "OBJECT_ID": "1999-025GL", "EPOCH": "2025-12-06T22:26:51.633312", "MEAN_MOTION": 14.23002881, "ECCENTRICITY": 0.00148673, "INCLINATION": 99.4682, "RA_OF_ASC_NODE": 102.0248, "ARG_OF_PERICENTER": 89.4238, "MEAN_ANOMALY": 270.8641, "EPHEMERIS_TYPE": 0, "CLASSIFICATION_TYPE": "U", "NORAD_CAT_ID": 29890, "ELEMENT_SET_NO": 999, "REV_AT_EPOCH": 97368, "BSTAR": 0.0014181, "MEAN_MOTION_DOT": 3.149e-05, "MEAN_MOTION_DDOT": 0}, "tle": {"line1": "1 29890U 99025GL  25340.93531983  .00003149  00000+0  14181-2 0  9991", "line2": "2 29890  99.4682 102.0248 0014867  89.4238 270.8641 14.23002881973685"}}, "geometry": {"type": "Point", "coordinates": [-82.73266355703295, -29.786649075493333]}}, {"type": "Feature", "properties": {"norad_id": 29891, "name": "FENGYUN 1C DEB", "group": "fengyun-1c-debris", "lat": -19.381969571604238, "lon": 160.87438454481145, "alt_km": 887.2289895168769, "timestamp": "2025-12-07T14:37:05.476731+00:00", "meta": {"OBJECT_NAME": "FENGYUN 1C DEB", "OBJECT_ID": "1999-025GM", "EPOCH": "2025-12-06T22:30:28.644192", "MEAN_MOTION": 13.99987165, "ECCENTRICITY": 0.00614804, "INCLINATION": 98.7259, "RA_OF_ASC_NODE": 343.3313, "ARG_OF_PERICENTER": 276.6213, "MEAN_ANOMALY": 142.3149, "EPHEMERIS_TYPE": 0, "CLASSIFICATION_TYPE": "U", "NORAD_CAT_ID": 29891, "ELEMENT_SET_NO": 999, "REV_AT_EPOCH": 96407, "BSTAR": 0.00058842118, "MEAN_MOTION_DOT": 8.37e-06, "MEAN_MOTION_DDOT": 0}, "tle": {"line1": "1 29891U 99025GM  25340.93783153  .00000837  00000+0  58842-3 0  9994", "line2": "2 29891  98.7259 343.3313 0061480 276.6213 142.3149 13.99987165964075"}}, "geometry": {"type": "Point", "coordinates": [160.87438454481145, -19.381969571604238]}}]}